[{"OBJECT_NAME":"STARLINK-35247","OBJECT_ID":"2025-210A","EPOCH":"2026-03-09T21:55:44.383296","MEAN_MOTION":15.30227046,"ECCENTRICITY":0.00013355,"INCLINATION":53.1612,"RA_OF_ASC_NODE":306.1647,"ARG_OF_PERICENTER":93.0229,"MEAN_ANOMALY":267.0924,"EPHEMERIS_TYPE":0,"CLASSIFICATION_TYPE":"U","NORAD_CAT_ID":65622,"ELEMENT_SET_NO":999,"REV_AT_EPOCH":2776,"BSTAR":0.00075859037,"MEAN_MOTION_DOT":0.00022194,"MEAN_MOTION_DDOT":0},{"OBJECT_NAME":"OBJECT D","OBJECT_ID":"2021-102D","EPOCH":"2026-03-09T14:47:14.426880","MEAN_MOTION":15.2846442,"ECCENTRICITY":0.0009157,"INCLINATION":97.3342,"RA_OF_ASC_NODE":112.2633,"ARG_OF_PERICENTER":187.6206,"MEAN_ANOMALY":172.4897,"EPHEMERIS_TYPE":0,"CLASSIFICATION_TYPE":"U","NORAD_CAT_ID":49398,"ELEMENT_SET_NO":999,"REV_AT_EPOCH":23880,"BSTAR":0.00046011,"MEAN_MOTION_DOT":0.00012697,"MEAN_MOTION_DDOT":0}]
